HAWK-2C                 
1 47502U 21006CT  26068.67595434  .00008129  00000+0  25493-3 0  9997
2 47502  97.2417 114.9961 0006943 184.0877 176.0310 15.33286436284247
STARLINK-32654          
1 62322U 24239X   26068.61104601  .00029345  00000+0  99922-3 0  9992
2 62322  53.1603 194.1570 0001109  56.0007 304.1099 15.30193069 69379
